[{"SPELERSNR":2, "NAAM":"Elfring", "VOORLETTERS":"R", "GEB_DATUM":"1948-09-01", "GESLACHT":"M", "JAARTOE":1975, "STRAAT":"Steden", "HUISNR":"43", "POSTCODE":"3575NH", "PLAATS":"Den Haag", "TELEFOON":"070-237893", "BONDSNR":"2411"},
 {"SPELERSNR":6, "NAAM":"Permentier", "VOORLETTERS":"R", "GEB_DATUM":"1964-06-25", "GESLACHT":"M", "JAARTOE":1977, "STRAAT":"Hazensteinln", "HUISNR":"80", "POSTCODE":"1234KK", "PLAATS":"Den Haag", "TELEFOON":"070-476537", "BONDSNR":"8467"},
 {"SPELERSNR":7, "NAAM":"Wijers", "VOORLETTERS":"GWS", "GEB_DATUM":"1963-05-11", "GESLACHT":"M", "JAARTOE":1981, "STRAAT":"Erasmusweg", "HUISNR":"39", "POSTCODE":"9758VB", "PLAATS":"Den Haag", "TELEFOON":"070-347689", "BONDSNR":""},
 {"SPELERSNR":8, "NAAM":"Niewenburg", "VOORLETTERS":"B", "GEB_DATUM":"1962-07-08", "GESLACHT":"V", "JAARTOE":1980, "STRAAT":"Spoorlaan", "HUISNR":"4", "POSTCODE":"6584WO", "PLAATS":"Rijswijk", "TELEFOON":"070-458458", "BONDSNR":"2983"},
 {"SPELERSNR":27, "NAAM":"Cools", "VOORLETTERS":"DD", "GEB_DATUM":"1964-12-28", "GESLACHT":"V", "JAARTOE":1983, "STRAAT":"Liespad", "HUISNR":"804", "POSTCODE":"8457DK", "PLAATS":"Zoetermeer", "TELEFOON":"079-234857", "BONDSNR":"2513"},
 {"SPELERSNR":28, "NAAM":"Cools", "VOORLETTERS":"C", "GEB_DATUM":"1963-06-22", "GESLACHT":"V", "JAARTOE":1983, "STRAAT":"Oudegracht", "HUISNR":"10", "POSTCODE":"1294QK", "PLAATS":"Leiden", "TELEFOON":"010-659599", "BONDSNR":""},
 {"SPELERSNR":39, "NAAM":"Bischoff", "VOORLETTERS":"D", "GEB_DATUM":"1956-10-29", "GESLACHT":"M", "JAARTOE":1980, "STRAAT":"Ericaplein", "HUISNR":"78", "POSTCODE":"9629CD", "PLAATS":"Den Haag", "TELEFOON":"070-393435", "BONDSNR":""},
 {"SPELERSNR":44, "NAAM":"Bakker, de", "VOORLETTERS":"E", "GEB_DATUM":"1963-01-09", "GESLACHT":"M", "JAARTOE":1980, "STRAAT":"Lawaaistraat", "HUISNR":"23", "POSTCODE":"4444LJ", "PLAATS":"Rijswijk", "TELEFOON":"070-368753", "BONDSNR":"1124"},
 {"SPELERSNR":57, "NAAM":"Bohemen, van", "VOORLETTERS":"M", "GEB_DATUM":"1971-08-17", "GESLACHT":"M", "JAARTOE":1985, "STRAAT":"Erasmusweg", "HUISNR":"16", "POSTCODE":"4377CB", "PLAATS":"Den Haag", "TELEFOON":"070-473458", "BONDSNR":"6409"},
 {"SPELERSNR":83, "NAAM":"Hofland", "VOORLETTERS":"PK", "GEB_DATUM":"1956-11-11", "GESLACHT":"M", "JAARTOE":1982, "STRAAT":"Mariakade", "HUISNR":"16a", "POSTCODE":"1812UP", "PLAATS":"Den Haag", "TELEFOON":"070-353548", "BONDSNR":"1608"},
 {"SPELERSNR":95, "NAAM":"Meuleman", "VOORLETTERS":"P", "GEB_DATUM":"1963-05-14", "GESLACHT":"M", "JAARTOE":1972, "STRAAT":"Hoofdweg", "HUISNR":"33a", "POSTCODE":"5746OP", "PLAATS":"Voorburg", "TELEFOON":"070-867564", "BONDSNR":""},
 {"SPELERSNR":100, "NAAM":"Permentier", "VOORLETTERS":"P", "GEB_DATUM":"1963-02-28", "GESLACHT":"M", "JAARTOE":1979, "STRAAT":"Hazensteinln", "HUISNR":"80", "POSTCODE":"6494SG", "PLAATS":"Den Haag", "TELEFOON":"070-494593", "BONDSNR":"6524"},
 {"SPELERSNR":104, "NAAM":"Moerman", "VOORLETTERS":"D", "GEB_DATUM":"1970-05-10", "GESLACHT":"V", "JAARTOE":1984, "STRAAT":"Stoutlaan", "HUISNR":"65", "POSTCODE":"9437AO", "PLAATS":"Zoetermeer", "TELEFOON":"079-987571", "BONDSNR":"7060"},
 {"SPELERSNR":112, "NAAM":"Baalen, van", "VOORLETTERS":"IP", "GEB_DATUM":"1963-10-01", "GESLACHT":"V", "JAARTOE":1984, "STRAAT":"Vosseweg", "HUISNR":"8", "POSTCODE":"6392LK", "PLAATS":"Rotterdam", "TELEFOON":"010-548745", "BONDSNR":"1319"}]



